{
  "type": "FeatureCollection",
  "metadata": {
    "source": "GEM Global Active Faults Database",
    "url": "https://github.com/GEMScienceTools/gem-global-active-faults",
    "license": "CC BY-SA 4.0",
    "citation": "Styron & Pagani (2020), Earthquake Spectra",
    "updatedAt": "2026-08-31T09:45:10.061Z"
  },
  "features": [
    {
      "type": "Feature",
      "properties": {
        "average_dip": "(60.0,45.0,75.0)",
        "average_rake": "(-105,-130.0,-80.0)",
        "catalog_id": "ME_GRCS160",
        "catalog_name": "EMME",
        "epistemic_quality": "1",
        "lower_seis_depth": "(14.0,,)",
        "net_slip_rate": "(0.6,0.4,0.7)",
        "slip_type": "Normal",
        "upper_seis_depth": "(0.0,,)"
      },
      "geometry": {
        "type": "LineString",
        "coordinates": [
          [
            26.129644,
            40.847688
          ],
          [
            26.075288,
            40.845883
          ],
          [
            26.043484,
            40.846334
          ],
          [
            26.009367,
            40.847237
          ],
          [
            25.977563,
            40.847237
          ],
          [
            25.93882,
            40.849945
          ],
          [
            25.898921,
            40.851299
          ],
          [
            25.872755,
            40.851635
          ],
          [
            25.848035,
            40.85087
          ],
          [
            25.818977,
            40.851089
          ],
          [
            25.795541,
            40.850947
          ],
          [
            25.772571,
            40.849996
          ],
          [
            25.732671,
            40.847154
          ],
          [
            25.703369,
            40.847658
          ],
          [
            25.664393,
            40.855469
          ],
          [
            25.632694,
            40.862169
          ],
          [
            25.605403,
            40.864925
          ],
          [
            25.593815,
            40.864103
          ],
          [
            25.582228,
            40.861225
          ],
          [
            25.568007,
            40.856292
          ],
          [
            25.557473,
            40.856292
          ],
          [
            25.531755,
            40.86396
          ],
          [
            25.499536,
            40.875203
          ]
        ]
      }
    },
    {
      "type": "Feature",
      "properties": {
        "average_dip": "(89.0,89.0,89.0)",
        "average_rake": "(8,180.0,-163.0)",
        "catalog_id": "ME_TRCS009",
        "catalog_name": "EMME",
        "epistemic_quality": "1",
        "lower_seis_depth": "(18.0,,)",
        "net_slip_rate": "(12.6,12.0,13.1899)",
        "slip_type": "Dextral",
        "upper_seis_depth": "(0.0,,)"
      },
      "geometry": {
        "type": "LineString",
        "coordinates": [
          [
            30.417031,
            40.645341
          ],
          [
            30.476308,
            40.633956
          ],
          [
            30.535585,
            40.622571
          ],
          [
            30.594843,
            40.61119
          ],
          [
            30.654101,
            40.599809
          ],
          [
            30.71334,
            40.588431
          ],
          [
            30.772579,
            40.577053
          ],
          [
            30.833562,
            40.574299
          ],
          [
            30.894545,
            40.571544
          ],
          [
            30.955598,
            40.573192
          ],
          [
            31.016651,
            40.57484
          ],
          [
            31.075674,
            40.585074
          ],
          [
            31.134696,
            40.595308
          ]
        ]
      }
    },
    {
      "type": "Feature",
      "properties": {
        "average_dip": "(84.0,83.0,85.0)",
        "average_rake": "(26,180.0,-127.0)",
        "catalog_id": "ME_TRCS012",
        "catalog_name": "EMME",
        "epistemic_quality": "1",
        "lower_seis_depth": "(18.0,,)",
        "net_slip_rate": "(10.7,1.4195,20.0489)",
        "slip_type": "Dextral-Normal",
        "upper_seis_depth": "(0.0,,)"
      },
      "geometry": {
        "type": "LineString",
        "coordinates": [
          [
            29.3275,
            40.7259
          ],
          [
            29.44555,
            40.72737
          ],
          [
            29.563603,
            40.72884
          ],
          [
            29.681251,
            40.736457
          ],
          [
            29.791993,
            40.705459
          ],
          [
            29.909753,
            40.71155
          ],
          [
            30.026666,
            40.723943
          ],
          [
            30.144715,
            40.725274
          ],
          [
            30.262779,
            40.725372
          ],
          [
            30.379942,
            40.714397
          ],
          [
            30.497906,
            40.711151
          ],
          [
            30.611161,
            40.685999
          ],
          [
            30.728272,
            40.696986
          ],
          [
            30.836032,
            40.733514
          ],
          [
            30.923536,
            40.755293
          ]
        ]
      }
    },
    {
      "type": "Feature",
      "properties": {
        "average_dip": "(56.5,35.0,78.0)",
        "average_rake": "(12,180.0,-156.0)",
        "catalog_id": "ME_TRCS013",
        "catalog_name": "EMME",
        "epistemic_quality": "1",
        "lower_seis_depth": "(15.0,,)",
        "net_slip_rate": "(21.4,15.0,27.9)",
        "slip_type": "Dextral",
        "upper_seis_depth": "(0.5,,)"
      },
      "geometry": {
        "type": "LineString",
        "coordinates": [
          [
            28.0563,
            40.7968
          ],
          [
            28.116661,
            40.807777
          ],
          [
            28.177022,
            40.818754
          ],
          [
            28.237518,
            40.829367
          ],
          [
            28.298014,
            40.839979
          ],
          [
            28.35958,
            40.846214
          ],
          [
            28.421145,
            40.852448
          ],
          [
            28.482832,
            40.858031
          ],
          [
            28.544518,
            40.863614
          ],
          [
            28.606536,
            40.866479
          ],
          [
            28.668554,
            40.869343
          ],
          [
            28.730577,
            40.872208
          ],
          [
            28.7926,
            40.875073
          ],
          [
            28.853591,
            40.866096
          ],
          [
            28.914582,
            40.857118
          ],
          [
            28.967916,
            40.833045
          ],
          [
            29.02125,
            40.808972
          ],
          [
            29.074556,
            40.784913
          ],
          [
            29.127861,
            40.760853
          ],
          [
            29.2279,
            40.7157
          ]
        ]
      }
    },
    {
      "type": "Feature",
      "properties": {
        "average_dip": "(62.0,58.0,66.0)",
        "average_rake": "(-156,-171.0,-142.0)",
        "catalog_id": "ME_TRCS014",
        "catalog_name": "EMME",
        "epistemic_quality": "1",
        "lower_seis_depth": "(18.0,,)",
        "net_slip_rate": "(0.8,0.7,1.0)",
        "slip_type": "Dextral-Normal",
        "upper_seis_depth": "(0.0,,)"
      },
      "geometry": {
        "type": "LineString",
        "coordinates": [
          [
            28.7511,
            40.7298
          ],
          [
            28.806491,
            40.719904
          ],
          [
            28.861882,
            40.710007
          ],
          [
            28.898384,
            40.67693
          ],
          [
            28.934885,
            40.643852
          ],
          [
            28.991113,
            40.650216
          ],
          [
            29.04734,
            40.656579
          ],
          [
            29.103262,
            40.664388
          ],
          [
            29.159184,
            40.672196
          ],
          [
            29.215207,
            40.67964
          ],
          [
            29.271229,
            40.687084
          ],
          [
            29.326984,
            40.69565
          ],
          [
            29.382739,
            40.704215
          ],
          [
            29.42012,
            40.709958
          ],
          [
            29.4575,
            40.7157
          ]
        ]
      }
    },
    {
      "type": "Feature",
      "properties": {
        "average_dip": "(85.0,80.0,90.0)",
        "average_rake": "(-146,-166.0,-126.0)",
        "catalog_id": "ME_TRCS015",
        "catalog_name": "EMME",
        "epistemic_quality": "1",
        "lower_seis_depth": "(18.0,,)",
        "net_slip_rate": "(0.8,0.7,1.0)",
        "slip_type": "Dextral-Normal",
        "upper_seis_depth": "(0.0,,)"
      },
      "geometry": {
        "type": "LineString",
        "coordinates": [
          [
            28.2957,
            40.7189
          ],
          [
            28.345701,
            40.691778
          ],
          [
            28.395702,
            40.664655
          ],
          [
            28.445676,
            40.637548
          ],
          [
            28.495651,
            40.61044
          ],
          [
            28.545598,
            40.583347
          ],
          [
            28.595546,
            40.556254
          ],
          [
            28.654718,
            40.54396
          ],
          [
            28.713889,
            40.531665
          ],
          [
            28.769515,
            40.55133
          ],
          [
            28.82514,
            40.570995
          ],
          [
            28.880792,
            40.59067
          ],
          [
            28.936444,
            40.610345
          ],
          [
            28.986022,
            40.627873
          ],
          [
            29.0356,
            40.6454
          ]
        ]
      }
    },
    {
      "type": "Feature",
      "properties": {
        "average_dip": "(70.0,70.0,70.0)",
        "average_rake": "(-143,-147.0,-140.0)",
        "catalog_id": "ME_TRCS018",
        "catalog_name": "EMME",
        "epistemic_quality": "1",
        "lower_seis_depth": "(18.0,,)",
        "net_slip_rate": "(4.0,1.0,7.0)",
        "slip_type": "Dextral-Normal",
        "upper_seis_depth": "(0.5,,)"
      },
      "geometry": {
        "type": "LineString",
        "coordinates": [
          [
            25.800556,
            40.245041
          ],
          [
            25.829802,
            40.281409
          ],
          [
            25.859048,
            40.317778
          ],
          [
            25.89593,
            40.349879
          ],
          [
            25.932812,
            40.38198
          ],
          [
            25.981325,
            40.40333
          ],
          [
            26.029838,
            40.424681
          ],
          [
            26.076999,
            40.445437
          ],
          [
            26.124159,
            40.466192
          ]
        ]
      }
    },
    {
      "type": "Feature",
      "properties": {
        "average_dip": "(75.0,65.0,85.0)",
        "average_rake": "(17,180.0,-145.0)",
        "catalog_id": "ME_TRCS022",
        "catalog_name": "EMME",
        "epistemic_quality": "1",
        "lower_seis_depth": "(18.0,,)",
        "net_slip_rate": "(6.4,4.8589,8.0)",
        "slip_type": "Dextral",
        "upper_seis_depth": "(0.0,,)"
      },
      "geometry": {
        "type": "LineString",
        "coordinates": [
          [
            29.050486,
            40.424473
          ],
          [
            29.169665,
            40.419589
          ],
          [
            29.288836,
            40.414705
          ],
          [
            29.40615,
            40.398109
          ],
          [
            29.523769,
            40.382936
          ],
          [
            29.642851,
            40.388236
          ],
          [
            29.760863,
            40.401554
          ],
          [
            29.878859,
            40.415078
          ],
          [
            29.996691,
            40.42953
          ],
          [
            30.114548,
            40.443985
          ],
          [
            30.226439,
            40.475729
          ],
          [
            30.342462,
            40.497385
          ],
          [
            30.45852,
            40.519048
          ],
          [
            30.574613,
            40.540718
          ],
          [
            30.61799,
            40.556235
          ],
          [
            30.680509,
            40.570695
          ]
        ]
      }
    },
    {
      "type": "Feature",
      "properties": {
        "average_dip": "(85.0,85.0,85.0)",
        "average_rake": "(17,180.0,-146.0)",
        "catalog_id": "ME_TRCS023",
        "catalog_name": "EMME",
        "epistemic_quality": "1",
        "lower_seis_depth": "(18.0,,)",
        "net_slip_rate": "(5.3,5.3,5.388)",
        "slip_type": "Dextral",
        "upper_seis_depth": "(0.0,,)"
      },
      "geometry": {
        "type": "LineString",
        "coordinates": [
          [
            27.957,
            40.4104
          ],
          [
            28.013158,
            40.418471
          ],
          [
            28.069315,
            40.426542
          ],
          [
            28.125486,
            40.434615
          ],
          [
            28.181656,
            40.442688
          ],
          [
            28.23784,
            40.450763
          ],
          [
            28.294023,
            40.458838
          ],
          [
            28.350306,
            40.466558
          ],
          [
            28.406589,
            40.474277
          ],
          [
            28.463631,
            40.471099
          ],
          [
            28.520673,
            40.467921
          ],
          [
            28.577581,
            40.46362
          ],
          [
            28.634488,
            40.459319
          ],
          [
            28.691439,
            40.455416
          ],
          [
            28.74839,
            40.451512
          ],
          [
            28.804653,
            40.443785
          ],
          [
            28.860915,
            40.436058
          ],
          [
            28.914221,
            40.420367
          ],
          [
            28.967527,
            40.404676
          ],
          [
            29.0782,
            40.3946
          ]
        ]
      }
    },
    {
      "type": "Feature",
      "properties": {
        "average_dip": "(67.0,49.0,85.0)",
        "average_rake": "(180,180.0,180.0)",
        "catalog_id": "ME_TRCS024",
        "catalog_name": "EMME",
        "epistemic_quality": "1",
        "lower_seis_depth": "(18.0,,)",
        "net_slip_rate": "(3.0,3.0,3.0)",
        "slip_type": "Dextral",
        "upper_seis_depth": "(0.0,,)"
      },
      "geometry": {
        "type": "LineString",
        "coordinates": [
          [
            27.466,
            40.2715
          ],
          [
            27.50564,
            40.270746
          ],
          [
            27.545279,
            40.269991
          ],
          [
            27.584919,
            40.269237
          ],
          [
            27.622189,
            40.279586
          ],
          [
            27.659459,
            40.289935
          ],
          [
            27.696729,
            40.300284
          ],
          [
            27.732543,
            40.313312
          ],
          [
            27.768357,
            40.326339
          ],
          [
            27.804171,
            40.339367
          ],
          [
            27.857136,
            40.358634
          ],
          [
            27.9101,
            40.3779
          ]
        ]
      }
    },
    {
      "type": "Feature",
      "properties": {
        "average_dip": "(85.0,85.0,85.0)",
        "average_rake": "(180,180.0,180.0)",
        "catalog_id": "ME_TRCS025",
        "catalog_name": "EMME",
        "epistemic_quality": "1",
        "lower_seis_depth": "(18.0,,)",
        "net_slip_rate": "(3.0,3.0,3.0)",
        "slip_type": "Dextral",
        "upper_seis_depth": "(0.0,,)"
      },
      "geometry": {
        "type": "LineString",
        "coordinates": [
          [
            27.2535,
            40.0667
          ],
          [
            27.289802,
            40.084905
          ],
          [
            27.326104,
            40.103109
          ],
          [
            27.362406,
            40.121314
          ],
          [
            27.399073,
            40.13912
          ],
          [
            27.435741,
            40.156925
          ],
          [
            27.472408,
            40.174731
          ],
          [
            27.513054,
            40.186504
          ],
          [
            27.5537,
            40.198277
          ],
          [
            27.594346,
            40.21005
          ],
          [
            27.634797,
            40.221767
          ],
          [
            27.675249,
            40.233483
          ],
          [
            27.7157,
            40.2452
          ]
        ]
      }
    },
    {
      "type": "Feature",
      "properties": {
        "average_dip": "(85.0,85.0,85.0)",
        "average_rake": "(180,180.0,180.0)",
        "catalog_id": "ME_TRCS028",
        "catalog_name": "EMME",
        "epistemic_quality": "1",
        "lower_seis_depth": "(18.0,,)",
        "net_slip_rate": "(3.4,3.4,3.4)",
        "slip_type": "Dextral",
        "upper_seis_depth": "(0.0,,)"
      },
      "geometry": {
        "type": "LineString",
        "coordinates": [
          [
            29.447457,
            40.160877
          ],
          [
            29.484755,
            40.173017
          ],
          [
            29.522053,
            40.185158
          ],
          [
            29.559351,
            40.197298
          ],
          [
            29.596184,
            40.210274
          ],
          [
            29.633016,
            40.22325
          ],
          [
            29.669849,
            40.236226
          ],
          [
            29.70493,
            40.251807
          ],
          [
            29.74001,
            40.267387
          ],
          [
            29.775091,
            40.282968
          ],
          [
            29.810215,
            40.298524
          ],
          [
            29.84534,
            40.314079
          ],
          [
            29.880464,
            40.329635
          ],
          [
            29.924709,
            40.351971
          ],
          [
            29.968954,
            40.374307
          ]
        ]
      }
    },
    {
      "type": "Feature",
      "properties": {
        "average_dip": "(50.0,50.0,50.0)",
        "average_rake": "(-104,-104.0,-104.0)",
        "catalog_id": "ME_TRCS029",
        "catalog_name": "EMME",
        "epistemic_quality": "1",
        "lower_seis_depth": "(18.0,,)",
        "net_slip_rate": "None",
        "slip_type": "Normal",
        "upper_seis_depth": "(0.0,,)"
      },
      "geometry": {
        "type": "LineString",
        "coordinates": [
          [
            29.21268,
            40.170228
          ],
          [
            29.168249,
            40.170312
          ],
          [
            29.123817,
            40.170397
          ],
          [
            29.079386,
            40.170481
          ],
          [
            29.034955,
            40.170565
          ],
          [
            28.990523,
            40.17065
          ],
          [
            28.946092,
            40.170734
          ],
          [
            28.901658,
            40.170818
          ],
          [
            28.857223,
            40.170903
          ],
          [
            28.812789,
            40.170987
          ]
        ]
      }
    },
    {
      "type": "Feature",
      "properties": {
        "average_dip": "(85.0,85.0,85.0)",
        "average_rake": "(180,180.0,180.0)",
        "catalog_id": "ME_TRCS038",
        "catalog_name": "EMME",
        "epistemic_quality": "1",
        "lower_seis_depth": "(18.0,,)",
        "net_slip_rate": "(5.3,5.3,5.3)",
        "slip_type": "Dextral",
        "upper_seis_depth": "(0.0,,)"
      },
      "geometry": {
        "type": "LineString",
        "coordinates": [
          [
            29.215426,
            40.403475
          ],
          [
            29.164676,
            40.394548
          ],
          [
            29.113925,
            40.385621
          ],
          [
            29.063187,
            40.376697
          ],
          [
            29.01245,
            40.367772
          ],
          [
            28.961725,
            40.35885
          ],
          [
            28.911,
            40.349927
          ]
        ]
      }
    },
    {
      "type": "Feature",
      "properties": {
        "average_dip": "(85.0,85.0,85.0)",
        "average_rake": "(180,180.0,180.0)",
        "catalog_id": "ME_TRCS039",
        "catalog_name": "EMME",
        "epistemic_quality": "1",
        "lower_seis_depth": "(18.0,,)",
        "net_slip_rate": "(3.4,3.4,3.4)",
        "slip_type": "Dextral",
        "upper_seis_depth": "(0.0,,)"
      },
      "geometry": {
        "type": "LineString",
        "coordinates": [
          [
            29.586795,
            40.314221
          ],
          [
            29.536795,
            40.290469
          ],
          [
            29.486794,
            40.266716
          ],
          [
            29.436818,
            40.242974
          ],
          [
            29.386841,
            40.219232
          ]
        ]
      }
    },
    {
      "type": "Feature",
      "properties": {
        "average_dip": "(85.0,85.0,85.0)",
        "average_rake": "(180,180.0,180.0)",
        "catalog_id": "ME_TRCS040",
        "catalog_name": "EMME",
        "epistemic_quality": "1",
        "lower_seis_depth": "(18.0,,)",
        "net_slip_rate": "(3.4,3.4,3.4)",
        "slip_type": "Dextral",
        "upper_seis_depth": "(0.0,,)"
      },
      "geometry": {
        "type": "LineString",
        "coordinates": [
          [
            28.803114,
            40.190994
          ],
          [
            28.765251,
            40.172123
          ],
          [
            28.727388,
            40.153252
          ],
          [
            28.689525,
            40.134381
          ],
          [
            28.651684,
            40.115521
          ],
          [
            28.613843,
            40.096662
          ],
          [
            28.576002,
            40.077802
          ],
          [
            28.538182,
            40.058952
          ],
          [
            28.500363,
            40.040103
          ],
          [
            28.462543,
            40.021253
          ]
        ]
      }
    },
    {
      "type": "Feature",
      "properties": {
        "average_dip": "(50.0,50.0,50.0)",
        "average_rake": "(-111,-111.0,-111.0)",
        "catalog_id": "ME_TRCS041",
        "catalog_name": "EMME",
        "epistemic_quality": "1",
        "lower_seis_depth": "(18.0,,)",
        "net_slip_rate": "None",
        "slip_type": "Normal",
        "upper_seis_depth": "(0.0,,)"
      },
      "geometry": {
        "type": "LineString",
        "coordinates": [
          [
            29.431945,
            40.192324
          ],
          [
            29.38061,
            40.197191
          ],
          [
            29.329274,
            40.202058
          ],
          [
            29.27793,
            40.206926
          ],
          [
            29.226585,
            40.211794
          ]
        ]
      }
    },
    {
      "type": "Feature",
      "properties": {
        "average_dip": "(50.0,50.0,50.0)",
        "average_rake": "(-111,-111.0,-111.0)",
        "catalog_id": "ME_TRCS042",
        "catalog_name": "EMME",
        "epistemic_quality": "1",
        "lower_seis_depth": "(18.0,,)",
        "net_slip_rate": "None",
        "slip_type": "Normal",
        "upper_seis_depth": "(0.0,,)"
      },
      "geometry": {
        "type": "LineString",
        "coordinates": [
          [
            29.348241,
            40.221132
          ],
          [
            29.300641,
            40.232921
          ],
          [
            29.25304,
            40.24471
          ],
          [
            29.205424,
            40.256503
          ],
          [
            29.157808,
            40.268295
          ]
        ]
      }
    },
    {
      "type": "Feature",
      "properties": {
        "average_dip": "(80.0,80.0,80.0)",
        "average_rake": "(-161,-161.0,-161.0)",
        "catalog_id": "ME_TRCS044",
        "catalog_name": "EMME",
        "epistemic_quality": "1",
        "lower_seis_depth": "(18.0,,)",
        "net_slip_rate": "None",
        "slip_type": "Dextral",
        "upper_seis_depth": "(0.0,,)"
      },
      "geometry": {
        "type": "LineString",
        "coordinates": [
          [
            29.573587,
            40.122883
          ],
          [
            29.517912,
            40.132037
          ],
          [
            29.462237,
            40.141191
          ],
          [
            29.406548,
            40.150347
          ],
          [
            29.350858,
            40.159504
          ],
          [
            29.295151,
            40.168663
          ],
          [
            29.239443,
            40.177823
          ]
        ]
      }
    },
    {
      "type": "Feature",
      "properties": {
        "average_dip": "(72.5,70.0,75.0)",
        "average_rake": "(-144,-146.0,-142.0)",
        "catalog_id": "ME_TRCS202",
        "catalog_name": "EMME",
        "epistemic_quality": "1",
        "lower_seis_depth": "(13.0,,)",
        "net_slip_rate": "(1.6,0.0001,3.1736)",
        "slip_type": "Dextral-Normal",
        "upper_seis_depth": "(0.0,,)"
      },
      "geometry": {
        "type": "LineString",
        "coordinates": [
          [
            29.217282,
            40.16646
          ],
          [
            29.270271,
            40.150127
          ],
          [
            29.32326,
            40.133793
          ],
          [
            29.370416,
            40.109168
          ],
          [
            29.417571,
            40.084542
          ],
          [
            29.460192,
            40.05551
          ],
          [
            29.502813,
            40.026477
          ],
          [
            29.552297,
            40.004788
          ],
          [
            29.601781,
            39.983098
          ],
          [
            29.648972,
            39.958628
          ],
          [
            29.696162,
            39.934157
          ],
          [
            29.749669,
            39.919216
          ],
          [
            29.803175,
            39.904275
          ],
          [
            29.859096,
            39.896123
          ],
          [
            29.915017,
            39.88797
          ],
          [
            29.968942,
            39.874027
          ],
          [
            30.022866,
            39.860083
          ],
          [
            30.06152,
            39.854308
          ]
        ]
      }
    },
    {
      "type": "Feature",
      "properties": {
        "average_dip": "(85.0,85.0,85.0)",
        "average_rake": "(180,180.0,180.0)",
        "catalog_id": "ME_TRCS418",
        "catalog_name": "EMME",
        "epistemic_quality": "1",
        "lower_seis_depth": "(16.0,,)",
        "net_slip_rate": "(0.5,0.0001,1.0)",
        "slip_type": "Dextral",
        "upper_seis_depth": "(0.0,,)"
      },
      "geometry": {
        "type": "LineString",
        "coordinates": [
          [
            27.99441,
            42.92793
          ],
          [
            28.026165,
            42.840377
          ],
          [
            28.057917,
            42.752832
          ],
          [
            28.089667,
            42.665295
          ],
          [
            28.121413,
            42.577765
          ],
          [
            28.153157,
            42.490244
          ],
          [
            28.184898,
            42.40273
          ],
          [
            28.216636,
            42.315224
          ],
          [
            28.248371,
            42.227727
          ],
          [
            28.280102,
            42.140238
          ],
          [
            28.311831,
            42.052758
          ],
          [
            28.343557,
            41.965286
          ],
          [
            28.375279,
            41.877822
          ],
          [
            28.406999,
            41.790367
          ],
          [
            28.438716,
            41.70292
          ],
          [
            28.470429,
            41.615481
          ],
          [
            28.50214,
            41.528051
          ],
          [
            28.533848,
            41.440629
          ],
          [
            28.565552,
            41.353215
          ],
          [
            28.597254,
            41.265809
          ],
          [
            28.628953,
            41.178412
          ],
          [
            28.66066,
            41.09099
          ]
        ]
      }
    },
    {
      "type": "Feature",
      "properties": {
        "average_dip": "(72.5,55.0,90.0)",
        "average_rake": "(22,180.0,-135.0)",
        "catalog_id": "ME_TRCS996",
        "catalog_name": "EMME",
        "epistemic_quality": "1",
        "lower_seis_depth": "(19.0,,)",
        "net_slip_rate": "(21.9,15.0,28.8881)",
        "slip_type": "Dextral-Normal",
        "upper_seis_depth": "(0.0,,)"
      },
      "geometry": {
        "type": "LineString",
        "coordinates": [
          [
            25.005397,
            39.984839
          ],
          [
            25.081501,
            40.006679
          ],
          [
            25.251618,
            40.053514
          ],
          [
            25.389534,
            40.092251
          ],
          [
            25.524078,
            40.123521
          ],
          [
            25.628512,
            40.161581
          ],
          [
            25.773818,
            40.212031
          ],
          [
            25.926659,
            40.247307
          ],
          [
            26.085589,
            40.272354
          ],
          [
            26.200499,
            40.315794
          ],
          [
            26.321028,
            40.371284
          ],
          [
            26.488272,
            40.451043
          ],
          [
            26.585053,
            40.491599
          ],
          [
            26.681833,
            40.532155
          ],
          [
            26.84888,
            40.595414
          ],
          [
            26.900067,
            40.616927
          ],
          [
            26.987711,
            40.655205
          ],
          [
            27.067007,
            40.682895
          ],
          [
            27.136914,
            40.699998
          ],
          [
            27.20682,
            40.715472
          ],
          [
            27.336198,
            40.75212
          ],
          [
            27.424327,
            40.777384
          ],
          [
            27.501385,
            40.79608
          ],
          [
            27.575641,
            40.803779
          ],
          [
            27.710143,
            40.808178
          ],
          [
            27.881072,
            40.811477
          ],
          [
            28.026022,
            40.80224
          ]
        ]
      }
    },
    {
      "type": "Feature",
      "properties": {
        "average_dip": "(60.0,45,75)",
        "average_rake": "(-105,-130,-80)",
        "catalog_id": "EUR_GRCS160",
        "catalog_name": "SHARE",
        "lower_seis_depth": "(14.0,,)",
        "net_slip_rate": "(0.6,0.4,0.7)",
        "slip_type": "Normal",
        "upper_seis_depth": "(0.0,,)"
      },
      "geometry": {
        "type": "LineString",
        "coordinates": [
          [
            25.499536,
            40.875203
          ],
          [
            25.531755,
            40.86396
          ],
          [
            25.557473,
            40.856292
          ],
          [
            25.568007,
            40.856292
          ],
          [
            25.582228,
            40.861225
          ],
          [
            25.593815,
            40.864103
          ],
          [
            25.605403,
            40.864925
          ],
          [
            25.632694,
            40.862169
          ],
          [
            25.664393,
            40.855469
          ],
          [
            25.703369,
            40.847658
          ],
          [
            25.732671,
            40.847154
          ],
          [
            25.772571,
            40.849996
          ],
          [
            25.795541,
            40.850947
          ],
          [
            25.818977,
            40.851089
          ],
          [
            25.848035,
            40.85087
          ],
          [
            25.872755,
            40.851635
          ],
          [
            25.898921,
            40.851299
          ],
          [
            25.93882,
            40.849945
          ],
          [
            25.977563,
            40.847237
          ],
          [
            26.009367,
            40.847237
          ],
          [
            26.043484,
            40.846334
          ],
          [
            26.075288,
            40.845883
          ],
          [
            26.129644,
            40.847688
          ]
        ]
      }
    },
    {
      "type": "Feature",
      "properties": {
        "average_dip": "(75.0,60,90)",
        "average_rake": "(22,180,-135)",
        "catalog_id": "EUR_GRCS290",
        "catalog_name": "SHARE",
        "lower_seis_depth": "(19.0,,)",
        "net_slip_rate": "(2.6,2.0,3.2)",
        "slip_type": "Sinistral",
        "upper_seis_depth": "(0.0,,)"
      },
      "geometry": {
        "type": "LineString",
        "coordinates": [
          [
            26.608157,
            40.578963
          ],
          [
            26.551118,
            40.574022
          ],
          [
            26.506012,
            40.568668
          ],
          [
            26.454762,
            40.560078
          ],
          [
            26.409486,
            40.551278
          ],
          [
            26.349197,
            40.540655
          ],
          [
            26.291971,
            40.526886
          ],
          [
            26.241925,
            40.511777
          ],
          [
            26.161391,
            40.483999
          ],
          [
            26.078779,
            40.461778
          ],
          [
            25.976645,
            40.4491
          ],
          [
            25.885064,
            40.441799
          ],
          [
            25.793483,
            40.432251
          ],
          [
            25.716211,
            40.415403
          ],
          [
            25.642517,
            40.395184
          ],
          [
            25.576486,
            40.37452
          ],
          [
            25.474729,
            40.345167
          ],
          [
            25.388685,
            40.33019
          ],
          [
            25.335652,
            40.33266
          ],
          [
            25.273129,
            40.339636
          ],
          [
            25.209357,
            40.356467
          ],
          [
            25.159836,
            40.36741
          ]
        ]
      }
    },
    {
      "type": "Feature",
      "properties": {
        "average_dip": "(89.0,89,89)",
        "average_rake": "(8,180,-163)",
        "catalog_id": "EUR_TRCS009",
        "catalog_name": "SHARE",
        "lower_seis_depth": "(18.0,,)",
        "net_slip_rate": "(12.6,12.0,13.1899)",
        "slip_type": "Sinistral",
        "upper_seis_depth": "(0.0,,)"
      },
      "geometry": {
        "type": "LineString",
        "coordinates": [
          [
            31.134696,
            40.595308
          ],
          [
            31.016651,
            40.57484
          ],
          [
            30.894545,
            40.571544
          ],
          [
            30.772579,
            40.577053
          ],
          [
            30.654101,
            40.599809
          ],
          [
            30.535585,
            40.622571
          ],
          [
            30.417031,
            40.645341
          ]
        ]
      }
    },
    {
      "type": "Feature",
      "properties": {
        "average_dip": "(84.0,83,85)",
        "average_rake": "(26,180,-127)",
        "catalog_id": "EUR_TRCS012",
        "catalog_name": "SHARE",
        "lower_seis_depth": "(18.0,,)",
        "net_slip_rate": "(10.7,1.4195,20.0489)",
        "slip_type": "Sinistral-Reverse",
        "upper_seis_depth": "(0.0,,)"
      },
      "geometry": {
        "type": "LineString",
        "coordinates": [
          [
            30.970459,
            40.779083
          ],
          [
            30.94384,
            40.77006
          ],
          [
            30.836032,
            40.733514
          ],
          [
            30.728272,
            40.696986
          ],
          [
            30.611161,
            40.685999
          ],
          [
            30.497906,
            40.711151
          ],
          [
            30.379942,
            40.714397
          ],
          [
            30.262779,
            40.725372
          ],
          [
            30.144715,
            40.725274
          ],
          [
            30.026666,
            40.723943
          ],
          [
            29.909753,
            40.71155
          ],
          [
            29.791993,
            40.705459
          ],
          [
            29.681251,
            40.736457
          ],
          [
            29.563603,
            40.72884
          ],
          [
            29.44555,
            40.72737
          ],
          [
            29.3275,
            40.7259
          ]
        ]
      }
    },
    {
      "type": "Feature",
      "properties": {
        "average_dip": "(56.5,35,78)",
        "average_rake": "(12,180,-156)",
        "catalog_id": "EUR_TRCS013",
        "catalog_name": "SHARE",
        "lower_seis_depth": "(15.0,,)",
        "net_slip_rate": "(27.0,26.1806,27.9)",
        "slip_type": "Sinistral",
        "upper_seis_depth": "(0.5,,)"
      },
      "geometry": {
        "type": "LineString",
        "coordinates": [
          [
            29.2279,
            40.7157
          ],
          [
            29.127861,
            40.760853
          ],
          [
            29.02125,
            40.808972
          ],
          [
            28.914582,
            40.857118
          ],
          [
            28.7926,
            40.875073
          ],
          [
            28.668554,
            40.869343
          ],
          [
            28.544518,
            40.863614
          ],
          [
            28.421145,
            40.852448
          ],
          [
            28.298014,
            40.839979
          ],
          [
            28.177022,
            40.818754
          ],
          [
            28.0563,
            40.7968
          ]
        ]
      }
    },
    {
      "type": "Feature",
      "properties": {
        "average_dip": "(62.0,58,66)",
        "average_rake": "(-156,-171,-142)",
        "catalog_id": "EUR_TRCS014",
        "catalog_name": "SHARE",
        "lower_seis_depth": "(18.0,,)",
        "net_slip_rate": "(8.9,7.632,10.1339)",
        "slip_type": "Dextral-Normal",
        "upper_seis_depth": "(0.0,,)"
      },
      "geometry": {
        "type": "LineString",
        "coordinates": [
          [
            29.4575,
            40.7157
          ],
          [
            29.382739,
            40.704215
          ],
          [
            29.271229,
            40.687084
          ],
          [
            29.159184,
            40.672196
          ],
          [
            29.04734,
            40.656579
          ],
          [
            28.934885,
            40.643852
          ],
          [
            28.861882,
            40.710007
          ],
          [
            28.7511,
            40.7298
          ]
        ]
      }
    },
    {
      "type": "Feature",
      "properties": {
        "average_dip": "(85.0,80,90)",
        "average_rake": "(-146,-166,-126)",
        "catalog_id": "EUR_TRCS015",
        "catalog_name": "SHARE",
        "lower_seis_depth": "(18.0,,)",
        "net_slip_rate": "(3.1,1.0,5.2941)",
        "slip_type": "Dextral-Normal",
        "upper_seis_depth": "(0.0,,)"
      },
      "geometry": {
        "type": "LineString",
        "coordinates": [
          [
            29.0356,
            40.6454
          ],
          [
            28.936444,
            40.610345
          ],
          [
            28.82514,
            40.570995
          ],
          [
            28.713889,
            40.531665
          ],
          [
            28.595546,
            40.556254
          ],
          [
            28.495651,
            40.61044
          ],
          [
            28.395702,
            40.664655
          ],
          [
            28.2957,
            40.7189
          ]
        ]
      }
    },
    {
      "type": "Feature",
      "properties": {
        "average_dip": "(70.0,70,70)",
        "average_rake": "(-143,-147,-140)",
        "catalog_id": "EUR_TRCS018",
        "catalog_name": "SHARE",
        "lower_seis_depth": "(18.0,,)",
        "net_slip_rate": "(26.8,26.2662,27.4037)",
        "slip_type": "Dextral-Normal",
        "upper_seis_depth": "(0.5,,)"
      },
      "geometry": {
        "type": "LineString",
        "coordinates": [
          [
            26.124159,
            40.466192
          ],
          [
            26.029838,
            40.424681
          ],
          [
            25.932812,
            40.38198
          ],
          [
            25.859048,
            40.317778
          ],
          [
            25.800556,
            40.245041
          ]
        ]
      }
    },
    {
      "type": "Feature",
      "properties": {
        "average_dip": "(75.0,65,85)",
        "average_rake": "(17,180,-145)",
        "catalog_id": "EUR_TRCS022",
        "catalog_name": "SHARE",
        "lower_seis_depth": "(18.0,,)",
        "net_slip_rate": "(6.4,4.8589,8.0)",
        "slip_type": "Sinistral",
        "upper_seis_depth": "(0.0,,)"
      },
      "geometry": {
        "type": "LineString",
        "coordinates": [
          [
            30.677867,
            40.559991
          ],
          [
            30.574613,
            40.540718
          ],
          [
            30.45852,
            40.519048
          ],
          [
            30.342462,
            40.497385
          ],
          [
            30.226439,
            40.475729
          ],
          [
            30.114548,
            40.443985
          ],
          [
            29.996691,
            40.42953
          ],
          [
            29.878859,
            40.415078
          ],
          [
            29.760863,
            40.401554
          ],
          [
            29.642851,
            40.388236
          ],
          [
            29.523769,
            40.382936
          ],
          [
            29.40615,
            40.398109
          ],
          [
            29.288836,
            40.414705
          ],
          [
            29.169665,
            40.419589
          ],
          [
            29.050486,
            40.424473
          ]
        ]
      }
    },
    {
      "type": "Feature",
      "properties": {
        "average_dip": "(85.0,85,85)",
        "average_rake": "(17,180,-146)",
        "catalog_id": "EUR_TRCS023",
        "catalog_name": "SHARE",
        "lower_seis_depth": "(18.0,,)",
        "net_slip_rate": "(5.3,5.3,5.388)",
        "slip_type": "Sinistral",
        "upper_seis_depth": "(0.0,,)"
      },
      "geometry": {
        "type": "LineString",
        "coordinates": [
          [
            29.0782,
            40.3946
          ],
          [
            28.967527,
            40.404676
          ],
          [
            28.860915,
            40.436058
          ],
          [
            28.74839,
            40.451512
          ],
          [
            28.634488,
            40.459319
          ],
          [
            28.520673,
            40.467921
          ],
          [
            28.406589,
            40.474277
          ],
          [
            28.294023,
            40.458838
          ],
          [
            28.181656,
            40.442688
          ],
          [
            28.069315,
            40.426542
          ],
          [
            27.957,
            40.4104
          ]
        ]
      }
    },
    {
      "type": "Feature",
      "properties": {
        "average_dip": "(67.0,49,85)",
        "average_rake": "(180,180,180)",
        "catalog_id": "EUR_TRCS024",
        "catalog_name": "SHARE",
        "lower_seis_depth": "(18.0,,)",
        "net_slip_rate": "(3.0,3.0,3.0)",
        "slip_type": "Dextral",
        "upper_seis_depth": "(0.0,,)"
      },
      "geometry": {
        "type": "LineString",
        "coordinates": [
          [
            27.9101,
            40.3779
          ],
          [
            27.804171,
            40.339367
          ],
          [
            27.696729,
            40.300284
          ],
          [
            27.584919,
            40.269237
          ],
          [
            27.466,
            40.2715
          ]
        ]
      }
    },
    {
      "type": "Feature",
      "properties": {
        "average_dip": "(85.0,85,85)",
        "average_rake": "(180,180,180)",
        "catalog_id": "EUR_TRCS025",
        "catalog_name": "SHARE",
        "lower_seis_depth": "(18.0,,)",
        "net_slip_rate": "(3.0,3.0,3.0)",
        "slip_type": "Dextral",
        "upper_seis_depth": "(0.0,,)"
      },
      "geometry": {
        "type": "LineString",
        "coordinates": [
          [
            27.7157,
            40.2452
          ],
          [
            27.594346,
            40.21005
          ],
          [
            27.472408,
            40.174731
          ],
          [
            27.362406,
            40.121314
          ],
          [
            27.2535,
            40.0667
          ]
        ]
      }
    },
    {
      "type": "Feature",
      "properties": {
        "average_dip": "(85.0,85,85)",
        "average_rake": "(180,180,180)",
        "catalog_id": "EUR_TRCS026",
        "catalog_name": "SHARE",
        "lower_seis_depth": "(18.0,,)",
        "net_slip_rate": "(3.0,3.0,3.0)",
        "slip_type": "Dextral",
        "upper_seis_depth": "(0.0,,)"
      },
      "geometry": {
        "type": "LineString",
        "coordinates": [
          [
            27.9913,
            40.2626
          ],
          [
            28.1144,
            40.3135
          ]
        ]
      }
    },
    {
      "type": "Feature",
      "properties": {
        "average_dip": "(85.0,85,85)",
        "average_rake": "(180,180,180)",
        "catalog_id": "EUR_TRCS028",
        "catalog_name": "SHARE",
        "lower_seis_depth": "(18.0,,)",
        "net_slip_rate": "(3.4,3.4,3.4)",
        "slip_type": "Dextral",
        "upper_seis_depth": "(0.0,,)"
      },
      "geometry": {
        "type": "LineString",
        "coordinates": [
          [
            29.968954,
            40.374307
          ],
          [
            29.880464,
            40.329635
          ],
          [
            29.775091,
            40.282968
          ],
          [
            29.669849,
            40.236226
          ],
          [
            29.559351,
            40.197298
          ],
          [
            29.447457,
            40.160877
          ]
        ]
      }
    },
    {
      "type": "Feature",
      "properties": {
        "average_dip": "(50.0,50,50)",
        "average_rake": "(-104,-104,-104)",
        "catalog_id": "EUR_TRCS029",
        "catalog_name": "SHARE",
        "lower_seis_depth": "(18.0,,)",
        "net_slip_rate": "None",
        "slip_type": "Normal",
        "upper_seis_depth": "(0.0,,)"
      },
      "geometry": {
        "type": "LineString",
        "coordinates": [
          [
            28.812789,
            40.170987
          ],
          [
            28.946092,
            40.170734
          ],
          [
            29.079386,
            40.170481
          ],
          [
            29.21268,
            40.170228
          ]
        ]
      }
    },
    {
      "type": "Feature",
      "properties": {
        "average_dip": "(85.0,85,85)",
        "average_rake": "(180,180,180)",
        "catalog_id": "EUR_TRCS038",
        "catalog_name": "SHARE",
        "lower_seis_depth": "(18.0,,)",
        "net_slip_rate": "(5.3,5.3,5.3)",
        "slip_type": "Dextral",
        "upper_seis_depth": "(0.0,,)"
      },
      "geometry": {
        "type": "LineString",
        "coordinates": [
          [
            28.911,
            40.349927
          ],
          [
            29.01245,
            40.367772
          ],
          [
            29.113925,
            40.385621
          ],
          [
            29.215426,
            40.403475
          ]
        ]
      }
    },
    {
      "type": "Feature",
      "properties": {
        "average_dip": "(85.0,85,85)",
        "average_rake": "(180,180,180)",
        "catalog_id": "EUR_TRCS039",
        "catalog_name": "SHARE",
        "lower_seis_depth": "(18.0,,)",
        "net_slip_rate": "(3.4,3.4,3.4)",
        "slip_type": "Dextral",
        "upper_seis_depth": "(0.0,,)"
      },
      "geometry": {
        "type": "LineString",
        "coordinates": [
          [
            29.386841,
            40.219232
          ],
          [
            29.486794,
            40.266716
          ],
          [
            29.586795,
            40.314221
          ]
        ]
      }
    },
    {
      "type": "Feature",
      "properties": {
        "average_dip": "(85.0,85,85)",
        "average_rake": "(180,180,180)",
        "catalog_id": "EUR_TRCS040",
        "catalog_name": "SHARE",
        "lower_seis_depth": "(18.0,,)",
        "net_slip_rate": "(3.4,3.4,3.4)",
        "slip_type": "Dextral",
        "upper_seis_depth": "(0.0,,)"
      },
      "geometry": {
        "type": "LineString",
        "coordinates": [
          [
            28.462543,
            40.021253
          ],
          [
            28.576002,
            40.077802
          ],
          [
            28.689525,
            40.134381
          ],
          [
            28.803114,
            40.190994
          ]
        ]
      }
    },
    {
      "type": "Feature",
      "properties": {
        "average_dip": "(50.0,50,50)",
        "average_rake": "(-111,-111,-111)",
        "catalog_id": "EUR_TRCS041",
        "catalog_name": "SHARE",
        "lower_seis_depth": "(18.0,,)",
        "net_slip_rate": "None",
        "slip_type": "Normal",
        "upper_seis_depth": "(0.0,,)"
      },
      "geometry": {
        "type": "LineString",
        "coordinates": [
          [
            29.226585,
            40.211794
          ],
          [
            29.329274,
            40.202058
          ],
          [
            29.431945,
            40.192324
          ]
        ]
      }
    },
    {
      "type": "Feature",
      "properties": {
        "average_dip": "(50.0,50,50)",
        "average_rake": "(-111,-111,-111)",
        "catalog_id": "EUR_TRCS042",
        "catalog_name": "SHARE",
        "lower_seis_depth": "(18.0,,)",
        "net_slip_rate": "None",
        "slip_type": "Normal",
        "upper_seis_depth": "(0.0,,)"
      },
      "geometry": {
        "type": "LineString",
        "coordinates": [
          [
            29.157808,
            40.268295
          ],
          [
            29.25304,
            40.24471
          ],
          [
            29.348241,
            40.221132
          ]
        ]
      }
    },
    {
      "type": "Feature",
      "properties": {
        "average_dip": "(80.0,80,80)",
        "average_rake": "(-161,-161,-161)",
        "catalog_id": "EUR_TRCS044",
        "catalog_name": "SHARE",
        "lower_seis_depth": "(18.0,,)",
        "net_slip_rate": "None",
        "slip_type": "Dextral",
        "upper_seis_depth": "(0.0,,)"
      },
      "geometry": {
        "type": "LineString",
        "coordinates": [
          [
            29.239443,
            40.177823
          ],
          [
            29.350858,
            40.159504
          ],
          [
            29.462237,
            40.141191
          ],
          [
            29.573587,
            40.122883
          ]
        ]
      }
    },
    {
      "type": "Feature",
      "properties": {
        "average_dip": "(72.5,70,75)",
        "average_rake": "(-144,-146,-142)",
        "catalog_id": "EUR_TRCS202",
        "catalog_name": "SHARE",
        "lower_seis_depth": "(13.0,,)",
        "net_slip_rate": "(1.6,0.0001,3.1736)",
        "slip_type": "Dextral-Normal",
        "upper_seis_depth": "(0.0,,)"
      },
      "geometry": {
        "type": "LineString",
        "coordinates": [
          [
            30.06152,
            39.854308
          ],
          [
            30.022866,
            39.860083
          ],
          [
            29.915017,
            39.88797
          ],
          [
            29.803175,
            39.904275
          ],
          [
            29.696162,
            39.934157
          ],
          [
            29.601781,
            39.983098
          ],
          [
            29.502813,
            40.026477
          ],
          [
            29.417571,
            40.084542
          ],
          [
            29.32326,
            40.133793
          ],
          [
            29.217282,
            40.16646
          ]
        ]
      }
    },
    {
      "type": "Feature",
      "properties": {
        "average_dip": "(85.0,85,85)",
        "average_rake": "(180,180,180)",
        "catalog_id": "EUR_TRCS418",
        "catalog_name": "SHARE",
        "lower_seis_depth": "(16.0,,)",
        "net_slip_rate": "(0.5,0.0001,1.0)",
        "slip_type": "Dextral",
        "upper_seis_depth": "(0.0,,)"
      },
      "geometry": {
        "type": "LineString",
        "coordinates": [
          [
            28.66066,
            41.09099
          ],
          [
            28.628953,
            41.178412
          ],
          [
            28.597254,
            41.265809
          ],
          [
            28.565552,
            41.353215
          ],
          [
            28.533848,
            41.440629
          ],
          [
            28.50214,
            41.528051
          ],
          [
            28.470429,
            41.615481
          ],
          [
            28.438716,
            41.70292
          ],
          [
            28.406999,
            41.790367
          ],
          [
            28.375279,
            41.877822
          ],
          [
            28.343557,
            41.965286
          ],
          [
            28.311831,
            42.052758
          ],
          [
            28.280102,
            42.140238
          ],
          [
            28.248371,
            42.227727
          ],
          [
            28.216636,
            42.315224
          ],
          [
            28.184898,
            42.40273
          ],
          [
            28.153157,
            42.490244
          ],
          [
            28.121413,
            42.577765
          ],
          [
            28.089667,
            42.665295
          ],
          [
            28.057917,
            42.752832
          ],
          [
            28.026165,
            42.840377
          ],
          [
            27.99441,
            42.92793
          ]
        ]
      }
    },
    {
      "type": "Feature",
      "properties": {
        "average_dip": "(72.5,55,90)",
        "average_rake": "(22,180,-135)",
        "catalog_id": "EUR_TRCS996",
        "catalog_name": "SHARE",
        "lower_seis_depth": "(19.0,,)",
        "net_slip_rate": "(27.7,26.5,28.8881)",
        "slip_type": "Sinistral",
        "upper_seis_depth": "(0.0,,)"
      },
      "geometry": {
        "type": "LineString",
        "coordinates": [
          [
            28.026022,
            40.80224
          ],
          [
            27.881072,
            40.811477
          ],
          [
            27.710143,
            40.808178
          ],
          [
            27.575641,
            40.803779
          ],
          [
            27.501385,
            40.79608
          ],
          [
            27.424327,
            40.777384
          ],
          [
            27.336198,
            40.75212
          ],
          [
            27.20682,
            40.715472
          ],
          [
            27.136914,
            40.699998
          ],
          [
            27.067007,
            40.682895
          ],
          [
            26.987711,
            40.655205
          ],
          [
            26.900067,
            40.616927
          ],
          [
            26.84888,
            40.595414
          ],
          [
            26.681833,
            40.532155
          ],
          [
            26.585053,
            40.491599
          ],
          [
            26.488272,
            40.451043
          ],
          [
            26.321028,
            40.371284
          ],
          [
            26.200499,
            40.315794
          ],
          [
            26.085589,
            40.272354
          ],
          [
            25.926659,
            40.247307
          ],
          [
            25.773818,
            40.212031
          ],
          [
            25.628512,
            40.161581
          ],
          [
            25.524078,
            40.123521
          ],
          [
            25.389534,
            40.092251
          ],
          [
            25.251618,
            40.053514
          ],
          [
            25.081501,
            40.006679
          ],
          [
            25.005397,
            39.984839
          ]
        ]
      }
    }
  ]
}